ONEWEB-0216             
1 48801U 21045AL  24093.89511698  .00000152  00000+0  36851-3 0  9991
2 48801  87.8998  59.4678 0001868  73.0388 287.0947 13.15548171138424
ONEWEB-0239             
1 48802U 21045AM  24093.89984465  .00000121  00000+0  28829-3 0  9990
2 48802  87.9009  59.4358 0001121 109.4368 250.6883 13.15545873138463
ONEWEB-0249             
1 48967U 21060A   24093.86430359 -.00000079  00000+0 -24104-3 0  9990
2 48967  87.9139  29.0517 0001877  79.1367 280.9975 13.16596060133647
ONEWEB-0250             
1 48968U 21060B   24093.86906742 -.00000005  00000+0 -46768-4 0  9995
2 48968  87.9139  29.0345 0001591  85.4326 274.6987 13.16595508133622
ONEWEB-0252             
1 48970U 21060D   24093.89598522 -.00000018  00000+0 -80896-4 0  9998
2 48970  87.9142  29.0383 0001843  73.1014 287.0319 13.16596543133693
ONEWEB-0253             
1 48971U 21060E   24093.88487113  .00000010  00000+0 -78726-5 0  9992
2 48971  87.9137  29.0543 0001531  75.5992 284.5308 13.16597650133624
ONEWEB-0254             
1 48972U 21060F   24093.89439258  .00000002  00000+0 -27558-4 0  9998
2 48972  87.9143  29.0287 0001514  74.6757 285.4541 13.16597135133624
ONEWEB-0255             
1 48973U 21060G   24093.85640141 -.00000007  00000+0 -52725-4 0  9990
2 48973  87.9138  29.0714 0001824  80.7302 279.4035 13.16596252133699
